[{"OBJECT_NAME":"STARLINK-34013","OBJECT_ID":"2025-094H","EPOCH":"2026-03-09T21:01:24.945888","MEAN_MOTION":14.98347536,"ECCENTRICITY":0.0003423,"INCLINATION":70.0022,"RA_OF_ASC_NODE":233.8845,"ARG_OF_PERICENTER":264.4793,"MEAN_ANOMALY":95.5976,"EPHEMERIS_TYPE":0,"CLASSIFICATION_TYPE":"U","NORAD_CAT_ID":63871,"ELEMENT_SET_NO":999,"REV_AT_EPOCH":4723,"BSTAR":0.0006281969,"MEAN_MOTION_DOT":7.414e-5,"MEAN_MOTION_DDOT":0},{"OBJECT_NAME":"TIROS 6","OBJECT_ID":"1962-047A","EPOCH":"2026-03-09T22:32:46.825440","MEAN_MOTION":14.95739722,"ECCENTRICITY":0.00128175,"INCLINATION":58.3026,"RA_OF_ASC_NODE":287.9356,"ARG_OF_PERICENTER":61.4296,"MEAN_ANOMALY":298.8041,"EPHEMERIS_TYPE":0,"CLASSIFICATION_TYPE":"U","NORAD_CAT_ID":397,"ELEMENT_SET_NO":999,"REV_AT_EPOCH":39747,"BSTAR":0.00017529326,"MEAN_MOTION_DOT":1.739e-5,"MEAN_MOTION_DDOT":0}]
